start=new Date('2021-10-07T00:00:00.000Z').valueOf();
sats=[{"ELEMENT_SET_NO":"999","SEMIMAJOR_AXIS":"6925.349","INCLINATION":"53.0549","RA_OF_ASC_NODE":"110.9504","EPOCH":"2021-10-06T20:12:25.301664","BSTAR":"0.00010900000000","CLASSIFICATION_TYPE":"U","OBJECT_NAME":"STARLINK-2108","EPHEMERIS_TYPE":"0","MEAN_MOTION_DDOT":"0.0000000000000","COUNTRY_CODE":"US","GP_ID":"186425442","CENTER_NAME":"EARTH","APOAPSIS":"548.528","FILE":"3148521","MEAN_ANOMALY":"272.6899","MEAN_ELEMENT_THEORY":"SGP4","REV_AT_EPOCH":"3964","OBJECT_ID":"2021-005AQ","NORAD_CAT_ID":"47387","REF_FRAME":"TEME","MEAN_MOTION_DOT":"0.00001342","ARG_OF_PERICENTER":"87.4307","TLE_LINE1":"1 47387U 21005AQ  21279.84195951  .00001342  00000-0  10900-3 0  9993","LAUNCH_DATE":"2021-01-20","RCS_SIZE":"LARGE","TIME_SYSTEM":"UTC","ECCENTRICITY":"0.00018970","DECAY_DATE":null,"PERIAPSIS":"545.900","MEAN_MOTION":"15.06399797","TLE_LINE2":"2 47387  53.0549 110.9504 0001897  87.4307 272.6899 15.06399797 39642","OBJECT_TYPE":"PAYLOAD","SITE":"AFETR","PERIOD":"95.592"},{"BSTAR":"0.00009434600000","CLASSIFICATION_TYPE":"U","ELEMENT_SET_NO":"999","EPOCH":"2021-10-06T20:33:38.726208","RA_OF_ASC_NODE":"110.8850","SEMIMAJOR_AXIS":"6925.348","INCLINATION":"53.0550","APOAPSIS":"548.367","GP_ID":"186424190","CENTER_NAME":"EARTH","MEAN_MOTION_DDOT":"0.0000000000000","OBJECT_NAME":"STARLINK-2109","EPHEMERIS_TYPE":"0","COUNTRY_CODE":"US","RCS_SIZE":"LARGE","LAUNCH_DATE":"2021-01-20","TLE_LINE1":"1 47388U 21005AR  21279.85669822  .00001124  00000-0  94346-4 0  9993","REV_AT_EPOCH":"3964","MEAN_ANOMALY":"264.1208","MEAN_ELEMENT_THEORY":"SGP4","FILE":"3148521","MEAN_MOTION_DOT":"0.00001124","ARG_OF_PERICENTER":"95.9971","NORAD_CAT_ID":"47388","REF_FRAME":"TEME","OBJECT_ID":"2021-005AR","PERIAPSIS":"546.058","PERIOD":"95.592","OBJECT_TYPE":"PAYLOAD","SITE":"AFETR","TLE_LINE2":"2 47388  53.0550 110.8850 0001667  95.9971 264.1208 15.06400248 39648","MEAN_MOTION":"15.06400248","ECCENTRICITY":"0.00016670","TIME_SYSTEM":"UTC","DECAY_DATE":null},{"FILE":"3148521","REV_AT_EPOCH":"3990","MEAN_ANOMALY":"261.6753","MEAN_ELEMENT_THEORY":"SGP4","NORAD_CAT_ID":"47389","REF_FRAME":"TEME","OBJECT_ID":"2021-005AS","ARG_OF_PERICENTER":"98.4454","MEAN_MOTION_DOT":"-0.00000312","LAUNCH_DATE":"2021-01-20","TLE_LINE1":"1 47389U 21005AS  21279.70373651 -.00000312  00000-0 -20601-5 0  9994","RCS_SIZE":"LARGE","ECCENTRICITY":"0.00019240","TIME_SYSTEM":"UTC","DECAY_DATE":null,"PERIAPSIS":"545.906","MEAN_MOTION":"15.06391855","TLE_LINE2":"2 47389  53.0525  91.5636 0001924  98.4454 261.6753 15.06391855 39907","PERIOD":"95.593","OBJECT_TYPE":"PAYLOAD","SITE":"AFETR","ELEMENT_SET_NO":"999","SEMIMAJOR_AXIS":"6925.374","INCLINATION":"53.0525","RA_OF_ASC_NODE":"91.5636","EPOCH":"2021-10-06T16:53:22.834464","CLASSIFICATION_TYPE":"U","BSTAR":"-0.00000206010000","MEAN_MOTION_DDOT":"0.0000000000000","OBJECT_NAME":"STARLINK-2110","EPHEMERIS_TYPE":"0","COUNTRY_CODE":"US","APOAPSIS":"548.571","GP_ID":"186424440","CENTER_NAME":"EARTH"},{"COUNTRY_CODE":"US","EPHEMERIS_TYPE":"0","OBJECT_NAME":"STARLINK-2111","MEAN_MOTION_DDOT":"0.0000000000000","CENTER_NAME":"EARTH","GP_ID":"186425691","APOAPSIS":"548.739","INCLINATION":"53.0548","SEMIMAJOR_AXIS":"6925.366","EPOCH":"2021-10-06T18:20:58.002144","RA_OF_ASC_NODE":"111.2874","ELEMENT_SET_NO":"999","CLASSIFICATION_TYPE":"U","BSTAR":"0.00007737700000","DECAY_DATE":null,"ECCENTRICITY":"0.00021770","TIME_SYSTEM":"UTC","TLE_LINE2":"2 47390  53.0548 111.2874 0002177  90.2511 269.8727 15.06394302 39634","MEAN_MOTION":"15.06394302","OBJECT_TYPE":"PAYLOAD","SITE":"AFETR","PERIOD":"95.593","PERIAPSIS":"545.723","OBJECT_ID":"2021-005AT","NORAD_CAT_ID":"47390","REF_FRAME":"TEME","ARG_OF_PERICENTER":"90.2511","MEAN_MOTION_DOT":"0.00000871","FILE":"3148521","MEAN_ELEMENT_THEORY":"SGP4","MEAN_ANOMALY":"269.8727","REV_AT_EPOCH":"3963","TLE_LINE1":"1 47390U 21005AT  21279.76456021  .00000871  00000-0  77377-4 0  9994","LAUNCH_DATE":"2021-01-20","RCS_SIZE":"LARGE"},{"BSTAR":"-0.00001666800000","CLASSIFICATION_TYPE":"U","ELEMENT_SET_NO":"999","SEMIMAJOR_AXIS":"6925.380","INCLINATION":"53.0541","RA_OF_ASC_NODE":"81.2492","EPOCH":"2021-10-06T18:34:12.216864","APOAPSIS":"548.617","GP_ID":"186425942","CENTER_NAME":"EARTH","MEAN_MOTION_DDOT":"0.0000000000000","EPHEMERIS_TYPE":"0","OBJECT_NAME":"STARLINK-2112","COUNTRY_CODE":"US","LAUNCH_DATE":"2021-01-20","TLE_LINE1":"1 47391U 21005AU  21279.77375251 -.00000530  00000-0 -16668-4 0  9991","RCS_SIZE":"LARGE","FILE":"3148521","REV_AT_EPOCH":"4005","MEAN_ELEMENT_THEORY":"SGP4","MEAN_ANOMALY":"270.0861","NORAD_CAT_ID":"47391","REF_FRAME":"TEME","OBJECT_ID":"2021-005AU","MEAN_MOTION_DOT":"-0.00000530","ARG_OF_PERICENTER":"90.0355","PERIAPSIS":"545.873","TLE_LINE2":"2 47391  53.0541  81.2492 0001981  90.0355 270.0861 15.06389787 40058","MEAN_MOTION":"15.06389787","PERIOD":"95.593","SITE":"AFETR","OBJECT_TYPE":"PAYLOAD","TIME_SYSTEM":"UTC","ECCENTRICITY":"0.00019810","DECAY_DATE":null},{"DECAY_DATE":null,"TIME_SYSTEM":"UTC","ECCENTRICITY":"0.00020870","TLE_LINE2":"2 47392  53.0534  80.9489 0002087  91.2538 268.8690 15.06392521 40063","MEAN_MOTION":"15.06392521","OBJECT_TYPE":"PAYLOAD","SITE":"AFETR","PERIOD":"95.593","PERIAPSIS":"545.791","OBJECT_ID":"2021-005AV","NORAD_CAT_ID":"47392","REF_FRAME":"TEME","ARG_OF_PERICENTER":"91.2538","MEAN_MOTION_DOT":"0.00001258","FILE":"3148521","MEAN_ELEMENT_THEORY":"SGP4","MEAN_ANOMALY":"268.8690","REV_AT_EPOCH":"4006","TLE_LINE1":"1 47392U 21005AV  21279.84104878  .00001258  00000-0  10340-3 0  9991","LAUNCH_DATE":"2021-01-20","RCS_SIZE":"LARGE","COUNTRY_CODE":"US","EPHEMERIS_TYPE":"0","OBJECT_NAME":"STARLINK-2113","MEAN_MOTION_DDOT":"0.0000000000000","CENTER_NAME":"EARTH","GP_ID":"186424690","APOAPSIS":"548.682","SEMIMAJOR_AXIS":"6925.371","INCLINATION":"53.0534","EPOCH":"2021-10-06T20:11:06.614592","RA_OF_ASC_NODE":"80.9489","ELEMENT_SET_NO":"999","BSTAR":"0.00010340000000","CLASSIFICATION_TYPE":"U"},{"CLASSIFICATION_TYPE":"U","BSTAR":"0.00009479100000","EPOCH":"2021-10-06T16:48:42.424128","RA_OF_ASC_NODE":"56.6254","INCLINATION":"53.0456","SEMIMAJOR_AXIS":"6925.386","ELEMENT_SET_NO":"999","CENTER_NAME":"EARTH","GP_ID":"186424940","APOAPSIS":"548.279","COUNTRY_CODE":"US","EPHEMERIS_TYPE":"0","OBJECT_NAME":"STARLINK-2114","MEAN_MOTION_DDOT":"0.0000000000000","RCS_SIZE":"LARGE","TLE_LINE1":"1 47393U 21005AW  21279.70049102  .00001130  00000-0  94791-4 0  9997","LAUNCH_DATE":"2021-01-20","MEAN_MOTION_DOT":"0.00001130","ARG_OF_PERICENTER":"119.1713","OBJECT_ID":"2021-005AW","NORAD_CAT_ID":"47393","REF_FRAME":"TEME","MEAN_ANOMALY":"240.9424","MEAN_ELEMENT_THEORY":"SGP4","REV_AT_EPOCH":"4039","FILE":"3148521","SITE":"AFETR","OBJECT_TYPE":"PAYLOAD","PERIOD":"95.593","TLE_LINE2":"2 47393  53.0456  56.6254 0001484 119.1713 240.9424 15.06387773 40397","MEAN_MOTION":"15.06387773","PERIAPSIS":"546.223","DECAY_DATE":null,"TIME_SYSTEM":"UTC","ECCENTRICITY":"0.00014840"},{"MEAN_MOTION_DDOT":"0.0000000000000","EPHEMERIS_TYPE":"0","OBJECT_NAME":"STARLINK-2115","COUNTRY_CODE":"US","APOAPSIS":"548.825","GP_ID":"186425192","CENTER_NAME":"EARTH","ELEMENT_SET_NO":"999","INCLINATION":"53.0577","SEMIMAJOR_AXIS":"6925.348","RA_OF_ASC_NODE":"76.2231","EPOCH":"2021-10-06T18:48:07.420608","BSTAR":"0.00010367000000","CLASSIFICATION_TYPE":"U","TIME_SYSTEM":"UTC","ECCENTRICITY":"0.00023280","DECAY_DATE":null,"PERIAPSIS":"545.601","MEAN_MOTION":"15.06400225","TLE_LINE2":"2 47394  53.0577  76.2231 0002328  87.8945 272.2311 15.06400225 40134","PERIOD":"95.592","SITE":"AFETR","OBJECT_TYPE":"PAYLOAD","FILE":"3148521","REV_AT_EPOCH":"4013","MEAN_ANOMALY":"272.2311","MEAN_ELEMENT_THEORY":"SGP4","NORAD_CAT_ID":"47394","REF_FRAME":"TEME","OBJECT_ID":"2021-005AX","MEAN_MOTION_DOT":"0.00001263","ARG_OF_PERICENTER":"87.8945","LAUNCH_DATE":"2021-01-20","TLE_LINE1":"1 47394U 21005AX  21279.78341922  .00001263  00000-0  10367-3 0  9994","RCS_SIZE":"LARGE"},{"BSTAR":"-0.00002406500000","CLASSIFICATION_TYPE":"U","SEMIMAJOR_AXIS":"6925.371","INCLINATION":"53.0569","EPOCH":"2021-10-06T16:29:29.812704","RA_OF_ASC_NODE":"71.6360","ELEMENT_SET_NO":"999","GP_ID":"186425443","CENTER_NAME":"EARTH","APOAPSIS":"548.660","COUNTRY_CODE":"US","EPHEMERIS_TYPE":"0","OBJECT_NAME":"STARLINK-2117","MEAN_MOTION_DDOT":"0.0000000000000","TLE_LINE1":"1 47395U 21005AY  21279.68715061 -.00000640  00000-0 -24065-4 0  9994","LAUNCH_DATE":"2021-01-20","RCS_SIZE":"LARGE","OBJECT_ID":"2021-005AY","NORAD_CAT_ID":"47395","REF_FRAME":"TEME","ARG_OF_PERICENTER":"88.7347","MEAN_MOTION_DOT":"-0.00000640","FILE":"3148521","MEAN_ANOMALY":"271.3878","MEAN_ELEMENT_THEORY":"SGP4","REV_AT_EPOCH":"4018","MEAN_MOTION":"15.06392646","TLE_LINE2":"2 47395  53.0569  71.6360 0002056  88.7347 271.3878 15.06392646 40182","SITE":"AFETR","OBJECT_TYPE":"PAYLOAD","PERIOD":"95.593","PERIAPSIS":"545.812","DECAY_DATE":null,"ECCENTRICITY":"0.00020560","TIME_SYSTEM":"UTC"},{"ELEMENT_SET_NO":"999","SEMIMAJOR_AXIS":"6925.340","INCLINATION":"53.0557","EPOCH":"2021-10-06T17:31:51.030336","RA_OF_ASC_NODE":"81.4459","CLASSIFICATION_TYPE":"U","BSTAR":"0.00009657100000","MEAN_MOTION_DDOT":"0.0000000000000","EPHEMERIS_TYPE":"0","OBJECT_NAME":"STARLINK-2118","COUNTRY_CODE":"US","APOAPSIS":"548.784","GP_ID":"186424191","CENTER_NAME":"EARTH","FILE":"3148521","REV_AT_EPOCH":"4005","MEAN_ELEMENT_THEORY":"SGP4","MEAN_ANOMALY":"264.5779","NORAD_CAT_ID":"47396","REF_FRAME":"TEME","OBJECT_ID":"2021-005AZ","ARG_OF_PERICENTER":"95.5470","MEAN_MOTION_DOT":"0.00001157","LAUNCH_DATE":"2021-01-20","TLE_LINE1":"1 47396U 21005AZ  21279.73045174  .00001157  00000-0  96571-4 0  9995","RCS_SIZE":"LARGE","ECCENTRICITY":"0.00022800","TIME_SYSTEM":"UTC","DECAY_DATE":null,"PERIAPSIS":"545.626","TLE_LINE2":"2 47396  53.0557  81.4459 0002280  95.5470 264.5779 15.06402696 40057","MEAN_MOTION":"15.06402696","PERIOD":"95.592","OBJECT_TYPE":"PAYLOAD","SITE":"AFETR"}];
